{
  "type": "FeatureCollection",
  "features": [
    {
      "type": "Feature",
      "properties": {
        "norad_id": 66798,
        "name": "STARLINK-36041",
        "group": "last-30-days",
        "lat": -13.296082096992604,
        "lon": -142.2778688399439,
        "alt_km": 336.0535742528027,
        "timestamp": "2025-12-15T22:44:27.661387+00:00",
        "meta_object_name": "STARLINK-36041",
        "meta_object_id": "2025-278H",
        "meta_epoch": "2025-12-15T08:00:01.999872",
        "meta_mean_motion": 15.79973735,
        "meta_eccentricity": 0.00018362,
        "meta_inclination": 42.9978,
        "meta_ra_of_asc_node": 236.1638,
        "meta_arg_of_pericenter": 278.1033,
        "meta_mean_anomaly": 166.4732,
        "meta_ephemeris_type": 0,
        "meta_classification_type": "U",
        "meta_norad_cat_id": 66798,
        "meta_element_set_no": 999,
        "meta_rev_at_epoch": 321,
        "meta_bstar": -0.007708762,
        "meta_mean_motion_dot": -0.01298656,
        "meta_mean_motion_ddot": 0,
        "tle_line1": "1 66798U 25278H   25349.33335648 -.01298656  00000+0 -77088-2 0  9998",
        "tle_line2": "2 66798  42.9978 236.1638 0001836 278.1033 166.4732 15.79973735  3219"
      },
      "geometry": {
        "type": "Point",
        "coordinates": [
          -142.2778688399439,
          -13.296082096992604
        ]
      }
    },
    {
      "type": "Feature",
      "properties": {
        "norad_id": 66799,
        "name": "STARLINK-36044",
        "group": "last-30-days",
        "lat": -11.876717826562068,
        "lon": -140.6361220595715,
        "alt_km": 336.29917155160183,
        "timestamp": "2025-12-15T22:44:27.661396+00:00",
        "meta_object_name": "STARLINK-36044",
        "meta_object_id": "2025-278J",
        "meta_epoch": "2025-12-15T08:00:01.999872",
        "meta_mean_motion": 15.79945563,
        "meta_eccentricity": 0.00017031,
        "meta_inclination": 42.9974,
        "meta_ra_of_asc_node": 236.1581,
        "meta_arg_of_pericenter": 272.3349,
        "meta_mean_anomaly": 174.4757,
        "meta_ephemeris_type": 0,
        "meta_classification_type": "U",
        "meta_norad_cat_id": 66799,
        "meta_element_set_no": 999,
        "meta_rev_at_epoch": 337,
        "meta_bstar": -0.0078275294,
        "meta_mean_motion_dot": -0.01339268,
        "meta_mean_motion_ddot": 0,
        "tle_line1": "1 66799U 25278J   25349.33335648 -.01339268  00000+0 -78275-2 0  9993",
        "tle_line2": "2 66799  42.9974 236.1581 0001703 272.3349 174.4757 15.79945563  3373"
      },
      "geometry": {
        "type": "Point",
        "coordinates": [
          -140.6361220595715,
          -11.876717826562068
        ]
      }
    },
    {
      "type": "Feature",
      "properties": {
        "norad_id": 66800,
        "name": "STARLINK-35996",
        "group": "last-30-days",
        "lat": -9.016649238636981,
        "lon": -137.40789255565264,
        "alt_km": 336.1483867014831,
        "timestamp": "2025-12-15T22:44:27.661406+00:00",
        "meta_object_name": "STARLINK-35996",
        "meta_object_id": "2025-278K",
        "meta_epoch": "2025-12-15T08:00:01.999872",
        "meta_mean_motion": 15.79877324,
        "meta_eccentricity": 0.00017733,
        "meta_inclination": 42.9975,
        "meta_ra_of_asc_node": 236.1466,
        "meta_arg_of_pericenter": 278.1483,
        "meta_mean_anomaly": 173.1131,
        "meta_ephemeris_type": 0,
        "meta_classification_type": "U",
        "meta_norad_cat_id": 66800,
        "meta_element_set_no": 999,
        "meta_rev_at_epoch": 316,
        "meta_bstar": -0.007923717,
        "meta_mean_motion_dot": -0.013502,
        "meta_mean_motion_ddot": 0,
        "tle_line1": "1 66800U 25278K   25349.33335648 -.01350200  00000+0 -79237-2 0  9994",
        "tle_line2": "2 66800  42.9975 236.1466 0001773 278.1483 173.1131 15.79877324  3167"
      },
      "geometry": {
        "type": "Point",
        "coordinates": [
          -137.40789255565264,
          -9.016649238636981
        ]
      }
    },
    {
      "type": "Feature",
      "properties": {
        "norad_id": 66801,
        "name": "STARLINK-36080",
        "group": "last-30-days",
        "lat": -1.7667548811661844,
        "lon": -129.5258379200166,
        "alt_km": 335.8812155320975,
        "timestamp": "2025-12-15T22:44:27.661416+00:00",
        "meta_object_name": "STARLINK-36080",
        "meta_object_id": "2025-278L",
        "meta_epoch": "2025-12-15T06:00:04.999968",
        "meta_mean_motion": 15.79925174,
        "meta_eccentricity": 0.00018929,
        "meta_inclination": 42.997,
        "meta_ra_of_asc_node": 236.6283,
        "meta_arg_of_pericenter": 276.2093,
        "meta_mean_anomaly": 71.8154,
        "meta_ephemeris_type": 0,
        "meta_classification_type": "U",
        "meta_norad_cat_id": 66801,
        "meta_element_set_no": 999,
        "meta_rev_at_epoch": 336,
        "meta_bstar": -0.0077893531,
        "meta_mean_motion_dot": -0.01332409,
        "meta_mean_motion_ddot": 0,
        "tle_line1": "1 66801U 25278L   25349.25005787 -.01332409  00000+0 -77894-2 0  9992",
        "tle_line2": "2 66801  42.9970 236.6283 0001892 276.2093  71.8154 15.79925174  3361"
      },
      "geometry": {
        "type": "Point",
        "coordinates": [
          -129.5258379200166,
          -1.7667548811661844
        ]
      }
    },
    {
      "type": "Feature",
      "properties": {
        "norad_id": 66802,
        "name": "STARLINK-35604",
        "group": "last-30-days",
        "lat": -10.473480295323045,
        "lon": -139.0389455128546,
        "alt_km": 336.0328861693415,
        "timestamp": "2025-12-15T22:44:27.661426+00:00",
        "meta_object_name": "STARLINK-35604",
        "meta_object_id": "2025-278M",
        "meta_epoch": "2025-12-15T06:00:04.999968",
        "meta_mean_motion": 15.80136489,
        "meta_eccentricity": 0.00018552,
        "meta_inclination": 42.9973,
        "meta_ra_of_asc_node": 236.6631,
        "meta_arg_of_pericenter": 269.2656,
        "meta_mean_anomaly": 65.2817,
        "meta_ephemeris_type": 0,
        "meta_classification_type": "U",
        "meta_norad_cat_id": 66802,
        "meta_element_set_no": 999,
        "meta_rev_at_epoch": 336,
        "meta_bstar": -0.0074906527,
        "meta_mean_motion_dot": -0.01274754,
        "meta_mean_motion_ddot": 0,
        "tle_line1": "1 66802U 25278M   25349.25005787 -.01274754  00000+0 -74907-2 0  9993",
        "tle_line2": "2 66802  42.9973 236.6631 0001855 269.2656  65.2817 15.80136489  3366"
      },
      "geometry": {
        "type": "Point",
        "coordinates": [
          -139.0389455128546,
          -10.473480295323045
        ]
      }
    },
    {
      "type": "Feature",
      "properties": {
        "norad_id": 66803,
        "name": "STARLINK-35565",
        "group": "last-30-days",
        "lat": -7.5987361860777,
        "lon": -135.83828536319166,
        "alt_km": 335.7289138414835,
        "timestamp": "2025-12-15T22:44:27.661438+00:00",
        "meta_object_name": "STARLINK-35565",
        "meta_object_id": "2025-278N",
        "meta_epoch": "2025-12-15T06:00:04.999968",
        "meta_mean_motion": 15.80066978,
        "meta_eccentricity": 0.00018792,
        "meta_inclination": 42.9972,
        "meta_ra_of_asc_node": 236.6516,
        "meta_arg_of_pericenter": 279.9845,
        "meta_mean_anomaly": 59.0344,
        "meta_ephemeris_type": 0,
        "meta_classification_type": "U",
        "meta_norad_cat_id": 66803,
        "meta_element_set_no": 999,
        "meta_rev_at_epoch": 345,
        "meta_bstar": -0.007557847,
        "meta_mean_motion_dot": -0.01281183,
        "meta_mean_motion_ddot": 0,
        "tle_line1": "1 66803U 25278N   25349.25005787 -.01281183  00000+0 -75578-2 0  9993",
        "tle_line2": "2 66803  42.9972 236.6516 0001879 279.9845  59.0344 15.80066978  3453"
      },
      "geometry": {
        "type": "Point",
        "coordinates": [
          -135.83828536319166,
          -7.5987361860777
        ]
      }
    },
    {
      "type": "Feature",
      "properties": {
        "norad_id": 66804,
        "name": "STARLINK-36038",
        "group": "last-30-days",
        "lat": -6.087763957508388,
        "lon": -134.18453147658002,
        "alt_km": 336.0941539425885,
        "timestamp": "2025-12-15T22:44:27.661448+00:00",
        "meta_object_name": "STARLINK-36038",
        "meta_object_id": "2025-278P",
        "meta_epoch": "2025-12-15T06:00:04.999968",
        "meta_mean_motion": 15.80021852,
        "meta_eccentricity": 0.00018309,
        "meta_inclination": 42.9974,
        "meta_ra_of_asc_node": 236.6459,
        "meta_arg_of_pericenter": 271.1777,
        "meta_mean_anomaly": 70.2283,
        "meta_ephemeris_type": 0,
        "meta_classification_type": "U",
        "meta_norad_cat_id": 66804,
        "meta_element_set_no": 999,
        "meta_rev_at_epoch": 336,
        "meta_bstar": -0.0076977731,
        "meta_mean_motion_dot": -0.01299571,
        "meta_mean_motion_ddot": 0,
        "tle_line1": "1 66804U 25278P   25349.25005787 -.01299571  00000+0 -76978-2 0  9999",
        "tle_line2": "2 66804  42.9974 236.6459 0001830 271.1777  70.2283 15.80021852  3366"
      },
      "geometry": {
        "type": "Point",
        "coordinates": [
          -134.18453147658002,
          -6.087763957508388
        ]
      }
    }
  ]
}